#dP2023 10  6 18  0  0.00000000      96 __u+U ITR00 EXT  IAC
## 2282 496800.00000000   900.00000000 60223 0.7500000000000
+  120   C06C07C08C09C10C11C12C13C14C16C19C20C21C22C23C24C25
+        C26C27C28C29C30C32C33C34C35C36C37C38C39C40C41C42C43
+        C44C45C46E02E03E04E05E07E08E09E10E11E12E13E14E15E18
+        E19E21E24E25E26E27E30E31E33E34E36G01G02G03G04G05G06
+        G07G08G09G10G11G12G13G14G15G16G17G18G19G20G21G22G23
+        G24G25G26G27G28G29G30G31G32J02J03J04R01R02R03R04R05
+        R07R08R09R11R12R13R14R15R16R17R18R19R20R21R22R24R25
+        R26  0  0  0  0  0  0  0  0  0  0  0  0  0  0  0  0
++        11  9 10 10  9  8  9 10  7 10  9  8  8  7  8  8  8
++         9  9  8  8  9  8  6  7  8  8  8 10  9  8  8 10  8
++         8  9  9  7  7  7  8  7  8  7 10  8  8  9  8 10  8
++         7  6  8  8  9  8  7  8  9 10  8  7  8  8  7  7  7
++         7  7  7  7  8  7  7  7  7  7  7 11  7  7  8  7  8
++         7  7  6  7  7  8  7  7  7  9 10 10  9  7  8  8  8
++         8  7  9  7  8  9  6  7  7  7  7  8 10  9  7  7 10
++         9  0  0  0  0  0  0  0  0  0  0  0  0  0  0  0  0
%c M  cc GPS ccc cccc cccc cccc cccc ccccc ccccc ccccc ccccc
%c cc cc ccc ccc cccc cccc cccc cccc ccccc ccccc ccccc ccccc
%f  0.0000000  0.000000000  0.00000000000  0.000000000000000
%f  0.0000000  0.000000000  0.00000000000  0.000000000000000
%i    0    0    0    0      0      0      0      0         0
%i    0    0    0    0      0      0      0      0         0
/* IAC                                ULTRA-RAPID PREDICTION
/* S/V CLOCKS ARE ALIGNED TO GNSS TIME                      
/* G:C1WC2W R:C1PC2P E:C1XC5X C:C2IC6I J:C1CC2S             
/* PCV:IGS20_2280 OL/AL:FES2004  NONE     YN ORB:CoN CLK:CoN
*  2023 10 07  1 45  0.00000000
PC06 -16330.184152  36015.271615 -15026.577347     44.766656
PC07  -4019.613935  34929.491022 -23041.184825   -118.564806
PC08 -10008.927827  18924.928642  36285.036469    309.684588
PC09 -12435.886512  34804.057643 -20393.801885     73.956666
PC10   3276.272733  37830.719471 -17410.023055   -202.896592
PC11  15758.187374   2424.254042  22979.495329    190.420605
PC12   4158.209619  20263.594664  18765.973271    907.918440
PC13  -2504.891399  21757.614263  36169.260664    363.593492
PC14  20731.178015  11726.011810 -14494.980034    539.869533
PC16 -21223.663571  35370.153494  -9251.797593   -113.886988
PC19 -18857.103543  -2383.346072  20452.119668   -971.227280
PC20 -19701.422395 -18160.522918   7844.997769    224.517044
PC21   8612.530336  24305.665768  10648.220097   -969.811647
PC22  -7125.126655  15638.048585  21969.920657   -276.956541
PC23  19318.855126 -13088.309732  15316.488399   -851.296172
PC24  20130.244473   9965.608697 -16587.064764    468.081909
PC25  27707.407132  -3423.618701   -129.296975    227.280893
PC26   2060.237166  16169.873600 -22664.676260   -188.083591
PC27   1987.446938 -24939.177577 -12375.107756    209.795221
PC28  13711.438209 -24070.671409   3418.115780    157.741316
PC29 -18194.773262   8407.172423 -19416.896146    184.340093
PC30 -11509.199584 -12615.527823 -22072.515746     -6.065497
PC32  -8725.192766 -24236.858846 -10738.297887   -529.066410
PC33  18919.716370   2346.714706 -20380.851730   -958.040310
PC34  12356.963119  11223.321325  22355.797923    275.533762
PC35 -12818.259643  24573.772996  -3404.830934    530.812740
PC36 -27797.662985   2197.028978    953.677637   -191.560079
PC37   -696.001874 -16307.332145  22648.430130   -846.235335
PC38 -18923.225661  18967.047681  32533.977304    109.514734
PC39 -22390.843274  35661.628002  -3970.076015     -5.107577
PC40  -7600.349161  31291.152656 -27052.323316    -39.169220
PC41   7668.497542 -15104.368474 -22133.772921   -874.117616
PC42  19290.000680  19100.606002  -6384.324147   -528.217567
PC43  18227.192397  -7391.700248  19783.953370     42.893297
PC44  -1148.504956  25115.406703  12125.049156    253.877297
PC45 -18850.001595  13195.705526 -15769.752058    -33.399741
PC46 -21018.538521  -9250.085581  15825.600460    -89.877431
PE02 -27364.956754  -9963.687384  -5248.731007     68.313238
PE03 -16791.125087  -7011.094436  23338.309651    -62.679261
PE04  13974.959999 -15295.995259 -21141.008867   -228.529827
PE05  -9856.172188 -25205.264871  11985.485796     25.086533
PE07  -3148.543849  28629.274353   6808.290943    -80.217923
PE08 -14021.654410  14789.225077  21456.487015   -157.513494
PE09   3178.545893 -28597.217860  -6980.548998   -182.352936
PE10  20155.025099 -19913.627658  -8600.376415   -569.231355
PE11  11424.889220 -20984.654417 -17480.030207   3052.022833
PE12  24989.804736 -15845.239123    673.067794   -726.406242
PE13 -12108.154053  21002.086643  16985.578327    -19.727325
PE14  16115.888387  -1859.696121  19116.436341    361.344060
PE15 -25104.162635  15637.384283  -1122.564976    -59.128646
PE18 -19219.944353  -8750.353624 -23105.999084    615.253736
PE19  16255.254045   9897.722021 -22672.619946  -1478.656683
PE21  18859.169727  19155.712016 -12390.732987   -556.903626
PE24   1782.754425 -17547.048678  23759.796483   -361.668928
PE25 -18549.292116 -19248.964114  12715.829332     -2.870263
PE26   8564.000529  13703.332210  24804.721954    243.835806
PE27  -1061.695594  17735.744956 -23669.124265   -168.188592
PE30 -20455.363625   5564.381655 -20657.700972   -559.165259
PE31  20142.588559  -5887.959026  20888.333126     -6.931711
PE33  22923.879447   -684.210907  18726.183769      0.103827
PE34 -23210.395678   1220.778274 -18321.502734    -70.996163
PE36  -7768.330119 -14008.899200 -24887.770548   -126.371300
PG01   8580.044787 -18462.759602 -17208.983074    164.077117
PG02  14031.747489 -19640.042896 -10372.090144   -545.176810
PG03  -2054.056482 -16712.006751 -20714.562788    -93.998362
PG04    862.020640 -26428.147939  -1609.029160    177.168077
PG05 -13252.131578   9621.090767  20749.191935   -145.523781
PG06 -22396.210136   3170.921491 -13932.771434    536.021127
PG07  -9228.612450 -12680.160127  21920.709782     47.296228
PG08   6410.525722 -22839.635609  11447.174366   -145.830252
PG09  -6913.551716 -24486.066682   7442.935498    -39.595994
PG10  24279.529870  10960.906139  -2137.224658    -56.312862
PG11 -23632.448935  11885.952692  -2016.697504   -403.356958
PG12  -2182.694311  16030.513294 -21352.482070   -433.019303
PG13 -12984.683272  15731.142362  16695.075406    581.079678
PG14 -22986.116290 -13470.501416    828.592128    206.551684
PG15  -2952.455234  24087.560003  10031.882057     84.613327
PG16  18352.280182  -3716.813609  18699.860648   -443.131798
PG17 -12759.840159 -12729.549630 -19031.007713    723.864001
PG18  10540.137142  10911.131150  21822.891789   -440.833176
PG19 -14784.844259  -3864.767222 -21945.444507    381.476301
PG20 -22249.416974   3423.097478  13987.527793    408.131826
PG21  16078.925366 -18934.206104  -7459.827288    147.350228
PG22 -23518.618797 -10206.256725  -5890.035737    107.766717
PG23  18637.602512  16352.376436   9774.749576     78.864698
PG24 -11132.279306  20494.195835 -12690.097075   -339.370957
PG25  12078.244175  18348.449132 -15435.397348    471.471963
PG26  24323.340412   1735.259420  10820.163680    224.658691
PG27  12882.088778 -12079.062595  19451.481851    -51.179910
PG28  21599.987367  -1840.101431 -15370.937447    -21.090285
PG29   4543.087770  24889.918131   7859.818514   -609.902505
PG30 -18095.186670  -5120.679877  18975.059626   -481.036396
PG31  24302.023896  -8706.805743  -7310.965163   -224.333315
PG32  14745.947537   8090.362921 -20422.668161   -569.007814
PJ02 -25389.043098  16679.762667 -24639.799201     -5.232029
PJ03 -28057.230307  31355.533784   1628.378785     -4.433075
PJ04 -25915.650204  26475.511921  26038.812004     71.006434
PR01  -8113.747997 -23191.782285  -6874.861611     67.159536
PR02 -14126.552536 -18053.079440  11150.041302    -22.391890
PR03 -12572.654940  -2171.012738  22115.032591     86.601262
PR04  -4003.587094  14288.463852  20774.927175    205.789596
PR05   6552.259237  23268.306423   8195.223175    120.197547
PR07  12303.976679   1458.992421 -22272.962360     66.283536
PR08   3868.469414 -14480.345742 -20577.444973    -72.849238
PR09  20940.574319   7267.931328 -12530.030350    146.247448
PR11  16217.639337  -7574.920508  18177.810841   -187.578149
PR12  -4138.180010 -11157.760027  22587.596762     32.072141
PR13 -19442.011494  -8120.922922  14365.467155    -39.949889
PR14 -25141.172899    429.357151  -4335.640050     25.369590
PR15 -15104.944656   7993.553585 -18916.947037     85.583998
PR16   3871.116268  10974.173744 -22682.823086     19.395511
PR17 -16238.982054   9619.176967 -17120.641168     23.511457
PR18 -15584.955551  20096.402075  -2216.217635    105.585140
PR19  -8531.999460  20479.715118  12578.306536   -249.964898
PR20   7033.108181   7819.204347  23251.517131   -101.318480
PR21  16481.245789 -10327.365429  16528.395572    -43.606785
PR22  15918.381102 -19889.357006   1277.209757     87.501233
PR24  -8110.561437  -7279.044421 -23043.191697    -27.228661
PR25  16856.728446  -8792.529124  17028.498602     29.344232
PR26   4067.980589 -14147.073422 -20822.900147    -21.507639
EOF
